{"type": "FeatureCollection", "features": [{"type": "Feature", "properties": {"norad_id": 24946, "name": "IRIDIUM 33", "group": "iridium-33-debris", "lat": 17.754505733891307, "lon": 64.35914435763905, "alt_km": 780.2299505398532, "timestamp": "2025-12-24T16:52:41.920816+00:00", "meta": {"OBJECT_NAME": "IRIDIUM 33", "OBJECT_ID": "1997-051C", "EPOCH": "2025-12-24T05:04:52.176864", "MEAN_MOTION": 14.35045005, "ECCENTRICITY": 0.00083922, "INCLINATION": 86.3858, "RA_OF_ASC_NODE": 63.4059, "ARG_OF_PERICENTER": 163.0794, "MEAN_ANOMALY": 197.0684, "EPHEMERIS_TYPE": 0, "CLASSIFICATION_TYPE": "U", "NORAD_CAT_ID": 24946, "ELEMENT_SET_NO": 999, "REV_AT_EPOCH": 47999, "BSTAR": 0.00011070213, "MEAN_MOTION_DOT": 3.35e-06, "MEAN_MOTION_DDOT": 0}, "tle": {"line1": "1 24946U 97051C   25358.21171501  .00000335  00000+0  11070-3 0  9990", "line2": "2 24946  86.3858  63.4059 0008392 163.0794 197.0684 14.35045005479994"}}, "geometry": {"type": "Point", "coordinates": [64.35914435763905, 17.754505733891307]}}, {"type": "Feature", "properties": {"norad_id": 33773, "name": "IRIDIUM 33 DEB", "group": "iridium-33-debris", "lat": -31.32263187866505, "lon": 53.32375835008802, "alt_km": 761.3433244789621, "timestamp": "2025-12-24T16:52:41.920861+00:00", "meta": {"OBJECT_NAME": "IRIDIUM 33 DEB", "OBJECT_ID": "1997-051L", "EPOCH": "2025-12-24T03:42:43.820640", "MEAN_MOTION": 14.43280063, "ECCENTRICITY": 0.00132558, "INCLINATION": 86.3998, "RA_OF_ASC_NODE": 55.752, "ARG_OF_PERICENTER": 113.5752, "MEAN_ANOMALY": 246.6843, "EPHEMERIS_TYPE": 0, "CLASSIFICATION_TYPE": "U", "NORAD_CAT_ID": 33773, "ELEMENT_SET_NO": 999, "REV_AT_EPOCH": 88512, "BSTAR": 0.00028414559, "MEAN_MOTION_DOT": 9.77e-06, "MEAN_MOTION_DDOT": 0}, "tle": {"line1": "1 33773U 97051L   25358.15467385  .00000977  00000+0  28415-3 0  9992", "line2": "2 33773  86.3998  55.7520 0013255 113.5752 246.6843 14.43280063885120"}}, "geometry": {"type": "Point", "coordinates": [53.32375835008802, -31.32263187866505]}}, {"type": "Feature", "properties": {"norad_id": 33775, "name": "IRIDIUM 33 DEB", "group": "iridium-33-debris", "lat": -24.753081507597972, "lon": 42.764784801170904, "alt_km": 767.9309050344573, "timestamp": "2025-12-24T16:52:41.920878+00:00", "meta": {"OBJECT_NAME": "IRIDIUM 33 DEB", "OBJECT_ID": "1997-051N", "EPOCH": "2025-12-23T13:17:41.922816", "MEAN_MOTION": 14.41490246, "ECCENTRICITY": 0.00152222, "INCLINATION": 86.3625, "RA_OF_ASC_NODE": 44.9362, "ARG_OF_PERICENTER": 122.4462, "MEAN_ANOMALY": 12.5884, "EPHEMERIS_TYPE": 0, "CLASSIFICATION_TYPE": "U", "NORAD_CAT_ID": 33775, "ELEMENT_SET_NO": 999, "REV_AT_EPOCH": 88296, "BSTAR": 0.00028606428, "MEAN_MOTION_DOT": 9.49e-06, "MEAN_MOTION_DDOT": 0}, "tle": {"line1": "1 33775U 97051N   25357.55395744  .00000949  00000+0  28606-3 0  9997", "line2": "2 33775  86.3625  44.9362 0015222 122.4462  12.5884 14.41490246882964"}}, "geometry": {"type": "Point", "coordinates": [42.764784801170904, -24.753081507597972]}}, {"type": "Feature", "properties": {"norad_id": 33776, "name": "IRIDIUM 33 DEB", "group": "iridium-33-debris", "lat": 65.46454037121292, "lon": 83.67235296872776, "alt_km": 757.2752398155444, "timestamp": "2025-12-24T16:52:41.920903+00:00", "meta": {"OBJECT_NAME": "IRIDIUM 33 DEB", "OBJECT_ID": "1997-051P", "EPOCH": "2025-12-24T05:10:49.952352", "MEAN_MOTION": 14.38254354, "ECCENTRICITY": 0.00156475, "INCLINATION": 86.403, "RA_OF_ASC_NODE": 75.9564, "ARG_OF_PERICENTER": 153.8702, "MEAN_ANOMALY": 270.0125, "EPHEMERIS_TYPE": 0, "CLASSIFICATION_TYPE": "U", "NORAD_CAT_ID": 33776, "ELEMENT_SET_NO": 999, "REV_AT_EPOCH": 88247, "BSTAR": 0.00026399096, "MEAN_MOTION_DOT": 8.23e-06, "MEAN_MOTION_DDOT": 0}, "tle": {"line1": "1 33776U 97051P   25358.21585593  .00000823  00000+0  26399-3 0  9993", "line2": "2 33776  86.4030  75.9564 0015647 153.8702 270.0125 14.38254354882479"}}, "geometry": {"type": "Point", "coordinates": [83.67235296872776, 65.46454037121292]}}, {"type": "Feature", "properties": {"norad_id": 33777, "name": "IRIDIUM 33 DEB", "group": "iridium-33-debris", "lat": -62.21838493153999, "lon": -143.0947247425331, "alt_km": 711.1948793314605, "timestamp": "2025-12-24T16:52:41.920927+00:00", "meta": {"OBJECT_NAME": "IRIDIUM 33 DEB", "OBJECT_ID": "1997-051Q", "EPOCH": "2025-12-24T04:13:11.619552", "MEAN_MOTION": 14.55689704, "ECCENTRICITY": 0.00062099, "INCLINATION": 86.3772, "RA_OF_ASC_NODE": 30.2277, "ARG_OF_PERICENTER": 200.6361, "MEAN_ANOMALY": 159.4597, "EPHEMERIS_TYPE": 0, "CLASSIFICATION_TYPE": "U", "NORAD_CAT_ID": 33777, "ELEMENT_SET_NO": 999, "REV_AT_EPOCH": 88700, "BSTAR": 0.0008483677, "MEAN_MOTION_DOT": 3.727e-05, "MEAN_MOTION_DDOT": 0}, "tle": {"line1": "1 33777U 97051Q   25358.17582893  .00003727  00000+0  84837-3 0  9996", "line2": "2 33777  86.3772  30.2277 0006209 200.6361 159.4597 14.55689704887000"}}, "geometry": {"type": "Point", "coordinates": [-143.0947247425331, -62.21838493153999]}}, {"type": "Feature", "properties": {"norad_id": 33850, "name": "IRIDIUM 33 DEB", "group": "iridium-33-debris", "lat": -14.657048726810507, "lon": 24.075777492074135, "alt_km": 763.2799035563885, "timestamp": "2025-12-24T16:52:41.920950+00:00", "meta": {"OBJECT_NAME": "IRIDIUM 33 DEB", "OBJECT_ID": "1997-051T", "EPOCH": "2025-12-24T00:35:08.831328", "MEAN_MOTION": 14.42173299, "ECCENTRICITY": 0.00132349, "INCLINATION": 86.3407, "RA_OF_ASC_NODE": 25.3267, "ARG_OF_PERICENTER": 127.4585, "MEAN_ANOMALY": 295.8147, "EPHEMERIS_TYPE": 0, "CLASSIFICATION_TYPE": "U", "NORAD_CAT_ID": 33850, "ELEMENT_SET_NO": 999, "REV_AT_EPOCH": 88315, "BSTAR": 0.0003866914, "MEAN_MOTION_DOT": 1.293e-05, "MEAN_MOTION_DDOT": 0}, "tle": {"line1": "1 33850U 97051T   25358.02440777  .00001293  00000+0  38669-3 0  9994", "line2": "2 33850  86.3407  25.3267 0013234 127.4585 295.8147 14.42173299883152"}}, "geometry": {"type": "Point", "coordinates": [24.075777492074135, -14.657048726810507]}}, {"type": "Feature", "properties": {"norad_id": 33853, "name": "IRIDIUM 33 DEB", "group": "iridium-33-debris", "lat": -41.326283159813244, "lon": -18.96306223928956, "alt_km": 975.9640348377789, "timestamp": "2025-12-24T16:52:41.920972+00:00", "meta": {"OBJECT_NAME": "IRIDIUM 33 DEB", "OBJECT_ID": "1997-051W", "EPOCH": "2025-12-24T05:08:01.366080", "MEAN_MOTION": 13.99117235, "ECCENTRICITY": 0.02076617, "INCLINATION": 86.0001, "RA_OF_ASC_NODE": 344.7788, "ARG_OF_PERICENTER": 200.434, "MEAN_ANOMALY": 172.8166, "EPHEMERIS_TYPE": 0, "CLASSIFICATION_TYPE": "U", "NORAD_CAT_ID": 33853, "ELEMENT_SET_NO": 999, "REV_AT_EPOCH": 85506, "BSTAR": 0.0011765218, "MEAN_MOTION_DOT": 2.066e-05, "MEAN_MOTION_DDOT": 0}, "tle": {"line1": "1 33853U 97051W   25358.21390470  .00002066  00000+0  11765-2 0  9998", "line2": "2 33853  86.0001 344.7788 0207661 200.4340 172.8166 13.99117235855061"}}, "geometry": {"type": "Point", "coordinates": [-18.96306223928956, -41.326283159813244]}}, {"type": "Feature", "properties": {"norad_id": 33860, "name": "IRIDIUM 33 DEB", "group": "iridium-33-debris", "lat": -73.24242543139076, "lon": 9.812128737841617, "alt_km": 672.5431261592712, "timestamp": "2025-12-24T16:52:41.920990+00:00", "meta": {"OBJECT_NAME": "IRIDIUM 33 DEB", "OBJECT_ID": "1997-051AD", "EPOCH": "2025-12-24T02:44:42.302400", "MEAN_MOTION": 14.67498252, "ECCENTRICITY": 0.00060933, "INCLINATION": 86.3822, "RA_OF_ASC_NODE": 22.2021, "ARG_OF_PERICENTER": 313.142, "MEAN_ANOMALY": 104.2436, "EPHEMERIS_TYPE": 0, "CLASSIFICATION_TYPE": "U", "NORAD_CAT_ID": 33860, "ELEMENT_SET_NO": 999, "REV_AT_EPOCH": 88889, "BSTAR": 0.0011400094, "MEAN_MOTION_DOT": 6.482e-05, "MEAN_MOTION_DDOT": 0}, "tle": {"line1": "1 33860U 97051AD  25358.11437850  .00006482  00000+0  11400-2 0  9991", "line2": "2 33860  86.3822  22.2021 0006093 313.1420 104.2436 14.67498252888891"}}, "geometry": {"type": "Point", "coordinates": [9.812128737841617, -73.24242543139076]}}, {"type": "Feature", "properties": {"norad_id": 33862, "name": "IRIDIUM 33 DEB", "group": "iridium-33-debris", "lat": 53.35017313824664, "lon": 37.097094708146244, "alt_km": 623.7798906180751, "timestamp": "2025-12-24T16:52:41.921017+00:00", "meta": {"OBJECT_NAME": "IRIDIUM 33 DEB", "OBJECT_ID": "1997-051AF", "EPOCH": "2025-12-24T03:52:50.668320", "MEAN_MOTION": 14.69651398, "ECCENTRICITY": 0.00522331, "INCLINATION": 86.4077, "RA_OF_ASC_NODE": 32.4924, "ARG_OF_PERICENTER": 30.7851, "MEAN_ANOMALY": 39.1118, "EPHEMERIS_TYPE": 0, "CLASSIFICATION_TYPE": "U", "NORAD_CAT_ID": 33862, "ELEMENT_SET_NO": 999, "REV_AT_EPOCH": 88991, "BSTAR": 0.0014716047, "MEAN_MOTION_DOT": 8.965e-05, "MEAN_MOTION_DDOT": 0}, "tle": {"line1": "1 33862U 97051AF  25358.16169755  .00008965  00000+0  14716-2 0  9995", "line2": "2 33862  86.4077  32.4924 0052233  30.7851  39.1118 14.69651398889919"}}, "geometry": {"type": "Point", "coordinates": [37.097094708146244, 53.35017313824664]}}, {"type": "Feature", "properties": {"norad_id": 33866, "name": "IRIDIUM 33 DEB", "group": "iridium-33-debris", "lat": 13.20104875613311, "lon": 88.843942694731, "alt_km": 836.2483867517522, "timestamp": "2025-12-24T16:52:41.921036+00:00", "meta": {"OBJECT_NAME": "IRIDIUM 33 DEB", "OBJECT_ID": "1997-051AK", "EPOCH": "2025-12-24T05:18:24.789600", "MEAN_MOTION": 14.25308834, "ECCENTRICITY": 0.01151675, "INCLINATION": 86.2998, "RA_OF_ASC_NODE": 88.1782, "ARG_OF_PERICENTER": 125.0108, "MEAN_ANOMALY": 297.1941, "EPHEMERIS_TYPE": 0, "CLASSIFICATION_TYPE": "U", "NORAD_CAT_ID": 33866, "ELEMENT_SET_NO": 999, "REV_AT_EPOCH": 86974, "BSTAR": 0.0005658111, "MEAN_MOTION_DOT": 1.447e-05, "MEAN_MOTION_DDOT": 0}, "tle": {"line1": "1 33866U 97051AK  25358.22112025  .00001447  00000+0  56581-3 0  9999", "line2": "2 33866  86.2998  88.1782 0115167 125.0108 297.1941 14.25308834869747"}}, "geometry": {"type": "Point", "coordinates": [88.843942694731, 13.20104875613311]}}]}